start=new Date('2022-11-03T00:00:00.000Z').valueOf();
sats=[{"OBJECT_NAME":"STARLINK-2499","NORAD_CAT_ID":"48377","EPHEMERIS_TYPE":"0","MEAN_ELEMENT_THEORY":"SGP4","PERIAPSIS":"546.458","RCS_SIZE":"LARGE","REF_FRAME":"TEME","CENTER_NAME":"EARTH","CLASSIFICATION_TYPE":"U","MEAN_MOTION_DDOT":"0.0000000000000","INCLINATION":"53.0547","TIME_SYSTEM":"UTC","LAUNCH_DATE":"2021-05-04","TLE_LINE2":"2 48377  53.0547  82.4186 0001136 104.2928 255.8187 15.06389944 82815","ARG_OF_PERICENTER":"104.2928","APOAPSIS":"548.031","COUNTRY_CODE":"US","OBJECT_TYPE":"PAYLOAD","SEMIMAJOR_AXIS":"6925.379","EPOCH":"2022-11-02T13:37:48.378720","MEAN_ANOMALY":"255.8187","OBJECT_ID":"2021-038AA","DECAY_DATE":null,"PERIOD":"95.593","MEAN_MOTION":"15.06389944","GP_ID":"216789037","ECCENTRICITY":"0.00011360","BSTAR":"0.00011735000000","TLE_LINE1":"1 48377U 21038AA  22306.56792105  .00001467  00000-0  11735-3 0  9999","SITE":"AFETR","FILE":"3643025","RA_OF_ASC_NODE":"82.4186","MEAN_MOTION_DOT":"0.00001467","ELEMENT_SET_NO":"999","REV_AT_EPOCH":"8281"},{"ECCENTRICITY":"0.00014720","BSTAR":"0.00008316400000","TLE_LINE1":"1 48378U 21038AB  22306.82961551  .00000958  00000-0  83164-4 0  9992","SITE":"AFETR","GP_ID":"216789290","PERIOD":"95.592","MEAN_MOTION":"15.06402382","DECAY_DATE":null,"ELEMENT_SET_NO":"999","REV_AT_EPOCH":"8285","RA_OF_ASC_NODE":"81.2605","MEAN_MOTION_DOT":"0.00000958","FILE":"3643025","CLASSIFICATION_TYPE":"U","INCLINATION":"53.0549","MEAN_MOTION_DDOT":"0.0000000000000","REF_FRAME":"TEME","CENTER_NAME":"EARTH","EPHEMERIS_TYPE":"0","MEAN_ELEMENT_THEORY":"SGP4","PERIAPSIS":"546.187","RCS_SIZE":"LARGE","OBJECT_NAME":"STARLINK-2526","NORAD_CAT_ID":"48378","EPOCH":"2022-11-02T19:54:38.780064","MEAN_ANOMALY":"247.9567","OBJECT_ID":"2021-038AB","OBJECT_TYPE":"PAYLOAD","SEMIMAJOR_AXIS":"6925.341","APOAPSIS":"548.226","COUNTRY_CODE":"US","TIME_SYSTEM":"UTC","LAUNCH_DATE":"2021-05-04","TLE_LINE2":"2 48378  53.0549  81.2605 0001472 112.1578 247.9567 15.06402382 82853","ARG_OF_PERICENTER":"112.1578"},{"COUNTRY_CODE":"US","APOAPSIS":"547.901","ARG_OF_PERICENTER":"100.9058","TLE_LINE2":"2 48379  53.0526  82.4573 0000959 100.9058 259.2039 15.06392423 82813","LAUNCH_DATE":"2021-05-04","TIME_SYSTEM":"UTC","OBJECT_ID":"2021-038AC","MEAN_ANOMALY":"259.2039","EPOCH":"2022-11-02T13:27:11.241792","SEMIMAJOR_AXIS":"6925.372","OBJECT_TYPE":"PAYLOAD","PERIAPSIS":"546.573","RCS_SIZE":"MEDIUM","MEAN_ELEMENT_THEORY":"SGP4","EPHEMERIS_TYPE":"0","NORAD_CAT_ID":"48379","OBJECT_NAME":"STARLINK-2612","INCLINATION":"53.0526","MEAN_MOTION_DDOT":"0.0000000000000","CLASSIFICATION_TYPE":"U","CENTER_NAME":"EARTH","REF_FRAME":"TEME","FILE":"3643025","REV_AT_EPOCH":"8281","ELEMENT_SET_NO":"999","RA_OF_ASC_NODE":"82.4573","MEAN_MOTION_DOT":"0.00000929","MEAN_MOTION":"15.06392423","PERIOD":"95.593","DECAY_DATE":null,"SITE":"AFETR","TLE_LINE1":"1 48379U 21038AC  22306.56054678  .00000929  00000-0  81225-4 0  9991","ECCENTRICITY":"0.00009590","BSTAR":"0.00008122500000","GP_ID":"216790040"},{"FILE":"3643025","REV_AT_EPOCH":"8284","ELEMENT_SET_NO":"999","MEAN_MOTION_DOT":"0.00000101","RA_OF_ASC_NODE":"81.4564","MEAN_MOTION":"15.06389769","PERIOD":"95.593","DECAY_DATE":null,"SITE":"AFETR","TLE_LINE1":"1 48380U 21038AD  22306.78444706  .00000101  00000-0  25706-4 0  9996","BSTAR":"0.00002570600000","ECCENTRICITY":"0.00012250","GP_ID":"216788290","COUNTRY_CODE":"US","APOAPSIS":"548.093","TLE_LINE2":"2 48380  53.0542  81.4564 0001225  90.1775 269.9355 15.06389769 82846","ARG_OF_PERICENTER":"90.1775","LAUNCH_DATE":"2021-05-04","TIME_SYSTEM":"UTC","OBJECT_ID":"2021-038AD","MEAN_ANOMALY":"269.9355","EPOCH":"2022-11-02T18:49:36.225984","SEMIMAJOR_AXIS":"6925.380","OBJECT_TYPE":"PAYLOAD","PERIAPSIS":"546.397","RCS_SIZE":"LARGE","MEAN_ELEMENT_THEORY":"SGP4","EPHEMERIS_TYPE":"0","NORAD_CAT_ID":"48380","OBJECT_NAME":"STARLINK-2614","INCLINATION":"53.0542","MEAN_MOTION_DDOT":"0.0000000000000","CLASSIFICATION_TYPE":"U","CENTER_NAME":"EARTH","REF_FRAME":"TEME"},{"FILE":"3642416","REV_AT_EPOCH":"8280","ELEMENT_SET_NO":"999","RA_OF_ASC_NODE":"82.7790","MEAN_MOTION_DOT":"0.00001809","MEAN_MOTION":"15.06390299","PERIOD":"95.593","DECAY_DATE":null,"SITE":"AFETR","TLE_LINE1":"1 48381U 21038AE  22306.49051535  .00001809  00000-0  14034-3 0  9996","ECCENTRICITY":"0.00013370","BSTAR":"0.00014034000000","GP_ID":"216751678","COUNTRY_CODE":"US","APOAPSIS":"548.169","ARG_OF_PERICENTER":"109.9126","TLE_LINE2":"2 48381  53.0557  82.7790 0001337 109.9126 250.2007 15.06390299 82804","LAUNCH_DATE":"2021-05-04","TIME_SYSTEM":"UTC","OBJECT_ID":"2021-038AE","MEAN_ANOMALY":"250.2007","EPOCH":"2022-11-02T11:46:20.526240","SEMIMAJOR_AXIS":"6925.378","OBJECT_TYPE":"PAYLOAD","PERIAPSIS":"546.317","RCS_SIZE":"LARGE","MEAN_ELEMENT_THEORY":"SGP4","EPHEMERIS_TYPE":"0","NORAD_CAT_ID":"48381","OBJECT_NAME":"STARLINK-2630","INCLINATION":"53.0557","MEAN_MOTION_DDOT":"0.0000000000000","CLASSIFICATION_TYPE":"U","CENTER_NAME":"EARTH","REF_FRAME":"TEME"},{"MEAN_MOTION":"15.06385248","PERIOD":"95.593","DECAY_DATE":null,"TLE_LINE1":"1 48382U 21038AF  22306.68586974 -.00000447  00000-0 -11166-4 0  9991","ECCENTRICITY":"0.00004650","BSTAR":"-0.00001116600000","SITE":"AFETR","GP_ID":"216789790","FILE":"3643025","ELEMENT_SET_NO":"999","REV_AT_EPOCH":"8283","MEAN_MOTION_DOT":"-0.00000447","RA_OF_ASC_NODE":"81.9010","MEAN_ELEMENT_THEORY":"SGP4","EPHEMERIS_TYPE":"0","RCS_SIZE":"LARGE","PERIAPSIS":"546.937","OBJECT_NAME":"STARLINK-2585","NORAD_CAT_ID":"48382","MEAN_MOTION_DDOT":"0.0000000000000","INCLINATION":"53.0588","CLASSIFICATION_TYPE":"U","CENTER_NAME":"EARTH","REF_FRAME":"TEME","COUNTRY_CODE":"US","APOAPSIS":"547.581","TIME_SYSTEM":"UTC","LAUNCH_DATE":"2021-05-04","TLE_LINE2":"2 48382  53.0588  81.9010 0000465 357.6887   2.4100 15.06385248 82834","ARG_OF_PERICENTER":"357.6887","EPOCH":"2022-11-02T16:27:39.145536","OBJECT_ID":"2021-038AF","MEAN_ANOMALY":"2.4100","OBJECT_TYPE":"PAYLOAD","SEMIMAJOR_AXIS":"6925.394"},{"MEAN_MOTION_DOT":"-0.00000915","RA_OF_ASC_NODE":"82.5175","ELEMENT_SET_NO":"999","REV_AT_EPOCH":"8403","FILE":"3643025","GP_ID":"216789541","TLE_LINE1":"1 48383U 21038AG  22306.54949243 -.00000915  00000-0 -42531-4 0  9999","BSTAR":"-0.00004253100000","ECCENTRICITY":"0.00013100","SITE":"AFETR","DECAY_DATE":null,"MEAN_MOTION":"15.06391237","PERIOD":"95.593","OBJECT_TYPE":"PAYLOAD","SEMIMAJOR_AXIS":"6925.375","EPOCH":"2022-11-02T13:11:16.145952","OBJECT_ID":"2021-038AG","MEAN_ANOMALY":"251.8032","LAUNCH_DATE":"2021-05-04","TIME_SYSTEM":"UTC","TLE_LINE2":"2 48383  53.0542  82.5175 0001310 108.3099 251.8032 15.06391237 84033","ARG_OF_PERICENTER":"108.3099","COUNTRY_CODE":"US","APOAPSIS":"548.148","CENTER_NAME":"EARTH","REF_FRAME":"TEME","MEAN_MOTION_DDOT":"0.0000000000000","INCLINATION":"53.0542","CLASSIFICATION_TYPE":"U","OBJECT_NAME":"STARLINK-2599","NORAD_CAT_ID":"48383","MEAN_ELEMENT_THEORY":"SGP4","EPHEMERIS_TYPE":"0","RCS_SIZE":"LARGE","PERIAPSIS":"546.333"},{"MEAN_MOTION_DOT":"-0.00001349","RA_OF_ASC_NODE":"82.8298","ELEMENT_SET_NO":"999","REV_AT_EPOCH":"8402","FILE":"3642416","GP_ID":"216752923","BSTAR":"-0.00007171200000","ECCENTRICITY":"0.00013170","TLE_LINE1":"1 48384U 21038AH  22306.47945610 -.00001349  00000-0 -71712-4 0  9991","SITE":"AFETR","DECAY_DATE":null,"PERIOD":"95.592","MEAN_MOTION":"15.06394925","OBJECT_TYPE":"PAYLOAD","SEMIMAJOR_AXIS":"6925.364","EPOCH":"2022-11-02T11:30:25.007040","MEAN_ANOMALY":"244.3979","OBJECT_ID":"2021-038AH","TIME_SYSTEM":"UTC","LAUNCH_DATE":"2021-05-04","TLE_LINE2":"2 48384  53.0553  82.8298 0001317 115.7146 244.3979 15.06394925 84020","ARG_OF_PERICENTER":"115.7146","APOAPSIS":"548.141","COUNTRY_CODE":"US","REF_FRAME":"TEME","CENTER_NAME":"EARTH","CLASSIFICATION_TYPE":"U","MEAN_MOTION_DDOT":"0.0000000000000","INCLINATION":"53.0553","OBJECT_NAME":"STARLINK-2601","NORAD_CAT_ID":"48384","EPHEMERIS_TYPE":"0","MEAN_ELEMENT_THEORY":"SGP4","PERIAPSIS":"546.317","RCS_SIZE":"LARGE"},{"PERIOD":"95.592","MEAN_MOTION":"15.06397013","DECAY_DATE":null,"SITE":"AFETR","BSTAR":"-0.00001330200000","ECCENTRICITY":"0.00012700","TLE_LINE1":"1 48385U 21038AJ  22306.67481226 -.00000479  00000-0 -13302-4 0  9996","GP_ID":"216789038","FILE":"3643025","REV_AT_EPOCH":"8405","ELEMENT_SET_NO":"999","MEAN_MOTION_DOT":"-0.00000479","RA_OF_ASC_NODE":"81.9527","RCS_SIZE":"LARGE","PERIAPSIS":"546.343","EPHEMERIS_TYPE":"0","MEAN_ELEMENT_THEORY":"SGP4","NORAD_CAT_ID":"48385","OBJECT_NAME":"STARLINK-2598","CLASSIFICATION_TYPE":"U","MEAN_MOTION_DDOT":"0.0000000000000","INCLINATION":"53.0552","REF_FRAME":"TEME","CENTER_NAME":"EARTH","APOAPSIS":"548.102","COUNTRY_CODE":"US","TLE_LINE2":"2 48385  53.0552  81.9527 0001270 105.5859 254.5270 15.06397013 84052","ARG_OF_PERICENTER":"105.5859","LAUNCH_DATE":"2021-05-04","TIME_SYSTEM":"UTC","MEAN_ANOMALY":"254.5270","OBJECT_ID":"2021-038AJ","EPOCH":"2022-11-02T16:11:43.779264","SEMIMAJOR_AXIS":"6925.358","OBJECT_TYPE":"PAYLOAD"},{"MEAN_MOTION":"15.06399766","PERIOD":"95.592","DECAY_DATE":null,"SITE":"AFETR","TLE_LINE1":"1 48386U 21038AK  22306.39697912  .00000186  00000-0  31358-4 0  9991","BSTAR":"0.00003135800000","ECCENTRICITY":"0.00016620","GP_ID":"216752429","FILE":"3642416","REV_AT_EPOCH":"8285","ELEMENT_SET_NO":"999","RA_OF_ASC_NODE":"78.2147","MEAN_MOTION_DOT":"0.00000186","RCS_SIZE":"LARGE","PERIAPSIS":"546.063","MEAN_ELEMENT_THEORY":"SGP4","EPHEMERIS_TYPE":"0","NORAD_CAT_ID":"48386","OBJECT_NAME":"STARLINK-2606","MEAN_MOTION_DDOT":"0.0000000000000","INCLINATION":"53.0529","CLASSIFICATION_TYPE":"U","CENTER_NAME":"EARTH","REF_FRAME":"TEME","COUNTRY_CODE":"US","APOAPSIS":"548.365","TLE_LINE2":"2 48386  53.0529  78.2147 0001662 107.0405 253.0766 15.06399766 82850","ARG_OF_PERICENTER":"107.0405","LAUNCH_DATE":"2021-05-04","TIME_SYSTEM":"UTC","OBJECT_ID":"2021-038AK","MEAN_ANOMALY":"253.0766","EPOCH":"2022-11-02T09:31:38.995968","SEMIMAJOR_AXIS":"6925.349","OBJECT_TYPE":"PAYLOAD"}];
